NORAD_CAT_ID,OBJECT_NAME,OBJECT_TYPE,EPOCH,MEAN_MOTION,ECCENTRICITY,INCLINATION,RA_OF_ASC_NODE,ARG_OF_PERICENTER,MEAN_ANOMALY,BSTAR,MEAN_MOTION_DOT,MEAN_MOTION_DDOT,TLE_LINE0,TLE_LINE1,TLE_LINE2,SEMIMAJOR_AXIS,PERIOD,APOGEE,PERIGEE,DECAYED
51798.0,STARLINK-3634,PAYLOAD,2024-03-06 08:02:21,15.08860892,0.0001359,53.2171,41.2748,93.312,266.8028,0.00034846,5.265e-05,0.0,0 STARLINK-3634,1 51798U 22017AG  24066.33496606  .00005265  00000-0  34846-3 0  9993,2 51798  53.2171  41.2748 0001359  93.3120 266.8028 15.08860892113254,6917.817,95.436,540.622,538.741,0.0
51798.0,STARLINK-3634,PAYLOAD,2024-03-07 04:42:22,15.08841957,0.0001223,53.217,37.4102,94.5477,265.5655,-3.7012e-05,-8.77e-06,0.0,0 STARLINK-3634,1 51798U 22017AG  24067.19609481 -.00000877  00000-0 -37012-4 0  9990,2 51798  53.2170  37.4102 0001223  94.5477 265.5655 15.08841957113389,6917.874,95.437,540.585,538.893,0.0
51798.0,STARLINK-3634,PAYLOAD,2024-03-07 07:53:08,15.08838976,0.0001204,53.2168,36.8158,95.6212,264.4917,-0.00012195,-2.228e-05,0.0,0 STARLINK-3634,1 51798U 22017AG  24067.32857544 -.00002228  00000-0 -12195-3 0  9996,2 51798  53.2168  36.8158 0001204  95.6212 264.4917 15.08838976113407,6917.884,95.438,540.581,538.916,0.0
51798.0,STARLINK-3634,PAYLOAD,2024-03-08 14:05:28,15.08854075,0.0001423,53.2185,31.1642,93.7779,266.3375,0.00033066,4.98e-05,0.0,0 STARLINK-3634,1 51798U 22017AG  24068.58713127  .00004980  00000-0  33066-3 0  9998,2 51798  53.2185  31.1642 0001423  93.7779 266.3375 15.08854075113599,6917.837,95.437,540.687,538.718,0.0
51798.0,STARLINK-3634,PAYLOAD,2024-03-08 22:02:24,15.08842244,0.0002385,53.218,29.6793,86.1815,273.945,0.00028964,4.325e-05,0.0,0 STARLINK-3634,1 51798U 22017AG  24068.91834025  .00004325  00000-0  28964-3 0  9990,2 51798  53.2180  29.6793 0002385  86.1815 273.9450 15.08842244113647,6917.874,95.437,541.388,538.089,0.0
51798.0,STARLINK-3634,PAYLOAD,2024-03-09 04:23:57,15.08836769,0.000156,53.2189,28.492,104.2252,255.8913,0.00011104,1.479e-05,0.0,0 STARLINK-3634,1 51798U 22017AG  24069.18330091  .00001479  00000-0  11104-3 0  9999,2 51798  53.2189  28.4920 0001560 104.2252 255.8913 15.08836769113688,6917.89,95.438,540.834,538.676,0.0
51798.0,STARLINK-3634,PAYLOAD,2024-03-09 13:56:15,15.08849693,0.0001292,53.2183,26.7054,94.2848,265.8292,0.00045069,6.894e-05,0.0,0 STARLINK-3634,1 51798U 22017AG  24069.58073752  .00006894  00000-0  45069-3 0  9994,2 51798  53.2183  26.7054 0001292  94.2848 265.8292 15.08849693113740,6917.851,95.437,540.61,538.822,0.0
51798.0,STARLINK-3634,PAYLOAD,2024-03-10 04:14:44,15.08846203,0.000142,53.218,24.0298,91.9051,268.2103,0.00043771,6.686e-05,0.0,0 STARLINK-3634,1 51798U 22017AG  24070.17690070  .00006686  00000-0  43771-3 0  9996,2 51798  53.2180  24.0298 0001420  91.9051 268.2103 15.08846203113833,6917.861,95.437,540.709,538.744,0.0
51798.0,STARLINK-3634,PAYLOAD,2024-03-10 05:50:07,15.08848181,0.0001527,53.2183,23.733,95.1612,264.9554,0.00055675,8.586e-05,0.0,0 STARLINK-3634,1 51798U 22017AG  24070.24314050  .00008586  00000-0  55675-3 0  9992,2 51798  53.2183  23.7330 0001527  95.1612 264.9554 15.08848181113847,6917.855,95.437,540.777,538.664,0.0
51798.0,STARLINK-3634,PAYLOAD,2024-03-11 04:05:31,15.08841925,0.000139,53.2177,19.5711,100.1416,259.9733,0.00011345,1.518e-05,0.0,0 STARLINK-3634,1 51798U 22017AG  24071.17050042  .00001518  00000-0  11345-3 0  9997,2 51798  53.2177  19.5711 0001390 100.1416 259.9733 15.08841925113980,6917.875,95.437,540.701,538.778,0.0
51798.0,STARLINK-3634,PAYLOAD,2024-03-11 13:37:49,15.08846712,0.0001331,53.2174,17.7853,91.3383,268.7762,0.00017209,2.452e-05,0.0,0 STARLINK-3634,1 51798U 22017AG  24071.56793871  .00002452  00000-0  17209-3 0  9997,2 51798  53.2174  17.7853 0001331  91.3383 268.7762 15.08846712114040,6917.86,95.437,540.646,538.804,0.0
51798.0,STARLINK-3634,PAYLOAD,2024-03-12 03:56:18,15.088383,0.0001554,53.2185,15.1061,93.0289,267.0881,3.1219e-06,-2.38e-06,0.0,0 STARLINK-3634,1 51798U 22017AG  24072.16410420 -.00000238  00000-0  31219-5 0  9990,2 51798  53.2185  15.1061 0001554  93.0289 267.0881 15.08838300114134,6917.886,95.438,540.826,538.676,0.0
51798.0,STARLINK-3634,PAYLOAD,2024-03-12 13:28:36,15.08848654,0.0001484,53.2186,13.3208,97.8375,262.2785,0.00018304,2.627e-05,0.0,0 STARLINK-3634,1 51798U 22017AG  24072.56153838  .00002627  00000-0  18304-3 0  9992,2 51798  53.2186  13.3208 0001484  97.8375 262.2785 15.08848654114197,6917.854,95.437,540.746,538.692,0.0
51798.0,STARLINK-3634,PAYLOAD,2024-03-13 02:11:42,15.0883598,0.0001371,53.2186,10.9428,99.132,260.9828,2.0452e-05,3.8e-07,0.0,0 STARLINK-3634,1 51798U 22017AG  24073.09146526  .00000038  00000-0  20452-4 0  9999,2 51798  53.2186  10.9428 0001371  99.1320 260.9828 15.08835980114274,6917.893,95.438,540.706,538.809,0.0
51798.0,STARLINK-3634,PAYLOAD,2024-03-13 22:51:42,15.08845488,0.0001682,53.2192,7.0747,108.8511,251.2663,0.00025253,3.734e-05,0.0,0 STARLINK-3634,1 51798U 22017AG  24073.95258091  .00003734  00000-0  25253-3 0  9994,2 51798  53.2192   7.0747 0001682 108.8511 251.2663 15.08845488114406,6917.864,95.437,540.892,538.565,0.0
51798.0,STARLINK-3634,PAYLOAD,2024-03-14 02:02:29,15.08848951,0.0001392,53.2188,6.483,99.2687,260.8463,0.00017627,2.519e-05,0.0,0 STARLINK-3634,1 51798U 22017AG  24074.08506003  .00002519  00000-0  17627-3 0  9994,2 51798  53.2188   6.4830 0001392  99.2687 260.8463 15.08848951114426,6917.853,95.437,540.681,538.755,0.0
51798.0,STARLINK-3634,PAYLOAD,2024-03-14 19:31:43,15.08841557,0.0001528,53.2191,3.2117,100.9188,259.1976,0.00016878,2.399e-05,0.0,0 STARLINK-3634,1 51798U 22017AG  24074.81370322  .00002399  00000-0  16878-3 0  9991,2 51798  53.2191   3.2117 0001528 100.9188 259.1976 15.08841557114537,6917.876,95.437,540.798,538.684,0.0
51798.0,STARLINK-3634,PAYLOAD,2024-03-14 22:42:30,15.08838474,0.0001567,53.2195,2.6157,104.6809,255.4357,0.0001016,1.329e-05,0.0,0 STARLINK-3634,1 51798U 22017AG  24074.94618441  .00001329  00000-0  10160-3 0  9992,2 51798  53.2195   2.6157 0001567 104.6809 255.4357 15.08838474114550,6917.885,95.438,540.834,538.666,0.0
51798.0,STARLINK-3634,PAYLOAD,2024-03-15 19:22:31,15.08834695,0.0001351,53.2181,358.7479,96.7082,263.4064,-5.2998e-06,-3.72e-06,0.0,0 STARLINK-3634,1 51798U 22017AG  24075.80730750 -.00000372  00000-0 -52998-5 0  9992,2 51798  53.2181 358.7479 0001351  96.7082 263.4064 15.08834695114681,6917.897,95.438,540.696,538.827,0.0
51798.0,STARLINK-3634,PAYLOAD,2024-03-15 22:33:17,15.08832626,0.0001349,53.2179,358.1524,100.6211,259.4933,-3.916e-05,-9.11e-06,0.0,0 STARLINK-3634,1 51798U 22017AG  24075.93978853 -.00000911  00000-0 -39160-4 0  9998,2 51798  53.2179 358.1524 0001349 100.6211 259.4933 15.08832626114704,6917.903,95.438,540.701,538.835,0.0
51798.0,STARLINK-3634,PAYLOAD,2024-03-16 04:54:50,15.08833113,0.0001347,53.2193,356.9667,98.5398,261.5747,-1.6036e-05,-5.43e-06,0.0,0 STARLINK-3634,1 51798U 22017AG  24076.20475235 -.00000543  00000-0 -16036-4 0  9993,2 51798  53.2193 356.9667 0001347  98.5398 261.5747 15.08833113114746,6917.901,95.438,540.698,538.835,0.0
51798.0,STARLINK-3634,PAYLOAD,2024-03-16 22:24:05,15.0882753,0.0001316,53.2188,353.6963,106.8393,253.2744,5.3146e-05,5.58e-06,0.0,0 STARLINK-3634,1 51798U 22017AG  24076.93339767  .00000558  00000-0  53146-4 0  9999,2 51798  53.2188 353.6963 0001316 106.8393 253.2744 15.08827530114850,6917.919,95.438,540.694,538.873,0.0
51798.0,STARLINK-3634,PAYLOAD,2024-03-17 01:34:52,15.08821697,0.0001165,53.2186,353.103,89.8276,270.285,1.2759e-05,-8.5e-07,0.0,0 STARLINK-3634,1 51798U 22017AG  24077.06588444 -.00000085  00000-0  12759-4 0  9993,2 51798  53.2186 353.1030 0001165  89.8276 270.2850 15.08821697114877,6917.936,95.439,540.607,538.995,0.0
51798.0,STARLINK-3634,PAYLOAD,2024-03-17 22:14:52,15.08831397,9.69e-05,53.2184,349.2424,83.0838,277.0264,0.00012547,1.709e-05,0.0,0 STARLINK-3634,1 51798U 22017AG  24077.92700090  .00001709  00000-0  12547-3 0  9998,2 51798  53.2184 349.2424 0000969  83.0838 277.0264 15.08831397115007,6917.907,95.438,540.442,539.101,0.0
51798.0,STARLINK-3634,PAYLOAD,2024-03-18 03:01:01,15.08843669,0.0001175,53.219,348.3476,101.879,258.2334,0.00022045,3.223e-05,0.0,0 STARLINK-3634,1 51798U 22017AG  24078.12571099  .00003223  00000-0  22045-3 0  9993,2 51798  53.2190 348.3476 0001175 101.8790 258.2334 15.08843669115034,6917.869,95.437,540.547,538.921,0.0
51798.0,STARLINK-3634,PAYLOAD,2024-03-18 22:05:38,15.08841326,0.0001133,53.2188,344.7764,104.4946,255.6172,0.0002501,3.695e-05,0.0,0 STARLINK-3634,1 51798U 22017AG  24078.92059003  .00003695  00000-0  25010-3 0  9995,2 51798  53.2188 344.7764 0001133 104.4946 255.6172 15.08841326115159,6917.876,95.437,540.525,538.958,0.0
51798.0,STARLINK-3634,PAYLOAD,2024-03-19 02:51:48,15.0884502,0.0001129,53.2187,343.8839,106.0473,254.0644,0.00027404,4.077e-05,0.0,0 STARLINK-3634,1 51798U 22017AG  24079.11930646  .00004077  00000-0  27404-3 0  9992,2 51798  53.2187 343.8839 0001129 106.0473 254.0644 15.08845020115184,6917.865,95.437,540.511,538.949,0.0
51798.0,STARLINK-3634,PAYLOAD,2024-03-19 21:56:26,15.08847627,0.0001568,53.2184,340.3151,115.3998,244.7157,-4.3411e-05,-9.79e-06,0.0,0 STARLINK-3634,1 51798U 22017AG  24079.91419405 -.00000979  00000-0 -43411-4 0  9991,2 51798  53.2184 340.3151 0001568 115.3998 244.7157 15.08847627115306,6917.857,95.437,540.807,538.637,0.0
51798.0,STARLINK-3634,PAYLOAD,2024-03-19 23:31:49,15.08845458,0.0001242,53.2184,340.0177,108.708,251.4047,-6.1832e-05,-1.272e-05,0.0,0 STARLINK-3634,1 51798U 22017AG  24079.98043563 -.00001272  00000-0 -61832-4 0  9990,2 51798  53.2184 340.0177 0001242 108.7080 251.4047 15.08845458115312,6917.864,95.437,540.588,538.87,0.0
51798.0,STARLINK-3634,PAYLOAD,2024-03-20 23:22:36,15.08847172,0.0001228,53.2188,335.5601,97.1318,262.9814,-1.3525e-05,-5.03e-06,0.0,0 STARLINK-3634,1 51798U 22017AG  24080.97403152 -.00000503  00000-0 -13525-4 0  9997,2 51798  53.2188 335.5601 0001228  97.1318 262.9814 15.08847172115466,6917.858,95.437,540.573,538.874,0.0
